NORAD_CAT_ID,OBJECT_NAME,OBJECT_TYPE,EPOCH,MEAN_MOTION,ECCENTRICITY,INCLINATION,RA_OF_ASC_NODE,ARG_OF_PERICENTER,MEAN_ANOMALY,BSTAR,MEAN_MOTION_DOT,MEAN_MOTION_DDOT,TLE_LINE0,TLE_LINE1,TLE_LINE2,SEMIMAJOR_AXIS,PERIOD,APOGEE,PERIGEE,DECAYED
55670.0,STARLINK-5423,PAYLOAD,2024-05-13 03:25:29,14.98312856,0.0002844,70.0008,42.4727,269.7574,90.3259,-0.00011696,-1.488e-05,0.0,0 STARLINK-5423,1 55670U 23021AU  24134.14270558 -.00001488  00000-0 -11696-3 0  9996,2 55670  70.0008  42.4727 0002844 269.7574  90.3259 14.98312856 69295,6950.246,96.108,574.088,570.134,0.0
55670.0,STARLINK-5423,PAYLOAD,2024-05-13 11:26:08,14.98340528,0.0002986,70.0012,41.6306,265.6385,94.4432,-0.00025591,-3.146e-05,0.0,0 STARLINK-5423,1 55670U 23021AU  24134.47649229 -.00003146  00000-0 -25591-3 0  9999,2 55670  70.0012  41.6306 0002986 265.6385  94.4432 14.98340528 69347,6950.16,96.106,574.101,569.95,0.0
55670.0,STARLINK-5423,PAYLOAD,2024-05-13 17:50:41,14.9832567,0.0003401,69.9986,40.9568,262.7934,97.2838,6.6365e-05,6.99e-06,0.0,0 STARLINK-5423,1 55670U 23021AU  24134.74353203  .00000699  00000-0  66365-4 0  9996,2 55670  69.9986  40.9568 0003401 262.7934  97.2838 14.98325670 69686,6950.206,96.107,574.435,569.708,0.0
55670.0,STARLINK-5423,PAYLOAD,2024-05-14 11:28:09,14.98311998,0.0003033,70.0005,39.1065,267.1858,92.8954,0.001064,0.00012619,0.0,0 STARLINK-5423,1 55670U 23021AU  24135.47788936  .00012619  00000-0  10640-2 0  9990,2 55670  70.0005  39.1065 0003033 267.1858  92.8954 14.98311998 69495,6950.249,96.108,574.222,570.006,0.0
55670.0,STARLINK-5423,PAYLOAD,2024-05-14 22:41:04,14.9835424,0.0003226,70.0,37.9274,268.1575,91.9214,0.00060747,7.167e-05,0.0,0 STARLINK-5423,1 55670U 23021AU  24135.94519142  .00007167  00000-0  60747-3 0  9999,2 55670  70.0000  37.9274 0003226 268.1575  91.9214 14.98354240 69866,6950.118,96.105,574.225,569.741,0.0
55670.0,STARLINK-5423,PAYLOAD,2024-05-15 03:29:27,14.9837147,0.0003073,70.0007,37.4226,266.898,93.1827,0.00067209,7.944e-05,0.0,0 STARLINK-5423,1 55670U 23021AU  24136.14546068  .00007944  00000-0  67209-3 0  9992,2 55670  70.0007  37.4226 0003073 266.8980  93.1827 14.98371470 69598,6950.065,96.104,574.065,569.794,0.0
55670.0,STARLINK-5423,PAYLOAD,2024-05-15 21:06:58,14.98348862,0.000307,70.0005,35.5712,271.8951,88.1857,-1.8407e-05,-3.13e-06,0.0,0 STARLINK-5423,1 55670U 23021AU  24136.87983923 -.00000313  00000-0 -18407-4 0  9999,2 55670  70.0005  35.5712 0003070 271.8951  88.1857 14.98348862 69705,6950.135,96.106,574.133,569.866,0.0
55670.0,STARLINK-5423,PAYLOAD,2024-05-15 22:43:06,14.98349672,0.0002792,70.0014,35.4041,272.8842,87.1997,-4.752e-05,-6.6e-06,0.0,0 STARLINK-5423,1 55670U 23021AU  24136.94659879 -.00000660  00000-0 -47520-4 0  9990,2 55670  70.0014  35.4041 0002792 272.8842  87.1997 14.98349672 70019,6950.132,96.106,573.938,570.057,0.0
55670.0,STARLINK-5423,PAYLOAD,2024-05-16 03:31:29,14.98355116,0.0003079,70.002,34.8973,271.3023,88.7784,-0.00015691,-1.966e-05,0.0,0 STARLINK-5423,1 55670U 23021AU  24137.14686433 -.00001966  00000-0 -15691-3 0  9992,2 55670  70.0020  34.8973 0003079 271.3023  88.7784 14.98355116 69746,6950.115,96.105,574.12,569.84,0.0
55670.0,STARLINK-5423,PAYLOAD,2024-05-16 09:56:01,14.98348514,0.0002926,70.0026,34.2238,279.433,80.6498,-0.00025526,-3.139e-05,0.0,0 STARLINK-5423,1 55670U 23021AU  24137.41390390 -.00003139  00000-0 -25526-3 0  9998,2 55670  70.0026  34.2238 0002926 279.4330  80.6498 14.98348514 70086,6950.136,96.106,574.034,569.967,0.0
55670.0,STARLINK-5423,PAYLOAD,2024-05-16 16:20:33,14.9834854,0.0002766,70.0026,33.5512,272.6993,87.385,-0.00038094,-4.637e-05,0.0,0 STARLINK-5423,1 55670U 23021AU  24137.68094075 -.00004637  00000-0 -38094-3 0  9996,2 55670  70.0026  33.5512 0002766 272.6993  87.3850 14.98348540 70125,6950.136,96.106,573.923,570.078,0.0
55670.0,STARLINK-5423,PAYLOAD,2024-05-17 03:33:28,14.98358172,0.000258,70.0039,32.3737,270.4815,89.6049,-0.00027809,-3.412e-05,0.0,0 STARLINK-5423,1 55670U 23021AU  24138.14825035 -.00003412  00000-0 -27809-3 0  9998,2 55670  70.0039  32.3737 0002580 270.4815  89.6049 14.98358172 69897,6950.106,96.105,573.764,570.178,0.0
55670.0,STARLINK-5423,PAYLOAD,2024-05-17 09:58:01,14.98339805,0.0002725,70.0023,31.6977,280.6525,79.4327,-0.00035499,-4.327e-05,0.0,0 STARLINK-5423,1 55670U 23021AU  24138.41529713 -.00004327  00000-0 -35499-3 0  9992,2 55670  70.0023  31.6977 0002725 280.6525  79.4327 14.98339805 69933,6950.163,96.106,573.921,570.134,0.0
55670.0,STARLINK-5423,PAYLOAD,2024-05-17 22:47:06,14.9833296,0.0002838,70.0043,30.3528,271.0464,89.037,0.00014994,1.697e-05,0.0,0 STARLINK-5423,1 55670U 23021AU  24138.94937770  .00001697  00000-0  14994-3 0  9998,2 55670  70.0043  30.3528 0002838 271.0464  89.0370 14.98332960 70318,6950.184,96.107,574.021,570.076,0.0
55670.0,STARLINK-5423,PAYLOAD,2024-05-18 10:00:01,14.98350328,0.0002475,70.0048,29.1748,273.0353,87.0523,0.00017132,1.953e-05,0.0,0 STARLINK-5423,1 55670U 23021AU  24139.41668795  .00001953  00000-0  17132-3 0  9991,2 55670  70.0048  29.1748 0002475 273.0353  87.0523 14.98350328 70089,6950.13,96.106,573.715,570.275,0.0
55670.0,STARLINK-5423,PAYLOAD,2024-05-18 21:12:59,14.98308035,0.0002684,70.0021,27.9955,270.4154,89.6697,-0.00074129,-8.921e-05,0.0,0 STARLINK-5423,1 55670U 23021AU  24139.88402299 -.00008921  00000-0 -74129-3 0  9990,2 55670  70.0021  27.9955 0002684 270.4154  89.6697 14.98308035 70154,6950.261,96.108,573.991,570.26,0.0
55670.0,STARLINK-5423,PAYLOAD,2024-05-18 22:49:07,14.98309968,0.0002772,70.0039,27.8271,261.9512,98.1333,-0.00071358,-8.592e-05,0.0,0 STARLINK-5423,1 55670U 23021AU  24139.95078297 -.00008592  00000-0 -71358-3 0  9990,2 55670  70.0039  27.8271 0002772 261.9512  98.1333 14.98309968 70466,6950.255,96.108,574.046,570.193,0.0
55670.0,STARLINK-5423,PAYLOAD,2024-05-19 00:25:15,14.98306031,0.000307,70.0032,27.6592,264.2411,95.8398,-0.00075853,-9.126e-05,0.0,0 STARLINK-5423,1 55670U 23021AU  24140.01754513 -.00009126  00000-0 -75853-3 0  9999,2 55670  70.0032  27.6592 0003070 264.2411  95.8398 14.98306031 70473,6950.267,96.109,574.266,569.998,0.0
55670.0,STARLINK-5423,PAYLOAD,2024-05-19 21:15:01,14.98314601,0.0002876,70.0028,25.4723,272.4348,87.6481,-0.00012991,-1.642e-05,0.0,0 STARLINK-5423,1 55670U 23021AU  24140.88543277 -.00001642  00000-0 -12991-3 0  9996,2 55670  70.0028  25.4723 0002876 272.4348  87.6481 14.98314601 70309,6950.241,96.108,574.104,570.107,0.0
55670.0,STARLINK-5423,PAYLOAD,2024-05-20 02:03:24,14.98341556,0.0003161,70.003,24.9665,281.7226,78.3578,0.00051604,6.072e-05,0.0,0 STARLINK-5423,1 55670U 23021AU  24141.08570320  .00006072  00000-0  51604-3 0  9992,2 55670  70.0030  24.9665 0003161 281.7226  78.3578 14.98341556 70333,6950.157,96.106,574.219,569.825,0.0
55670.0,STARLINK-5423,PAYLOAD,2024-05-20 14:52:29,14.98335944,0.0002649,70.0043,23.622,273.1559,86.9297,0.00061927,7.305e-05,0.0,0 STARLINK-5423,1 55670U 23021AU  24141.61978762  .00007305  00000-0  61927-3 0  9992,2 55670  70.0043  23.6220 0002649 273.1559  86.9297 14.98335944 70713,6950.175,96.107,573.881,570.198,0.0
55670.0,STARLINK-5423,PAYLOAD,2024-05-20 21:17:02,14.98330064,0.0003103,70.0027,22.9478,268.2492,91.8312,0.00046602,5.472e-05,0.0,0 STARLINK-5423,1 55670U 23021AU  24141.88683164  .00005472  00000-0  46602-3 0  9996,2 55670  70.0027  22.9478 0003103 268.2492  91.8312 14.98330064 70451,6950.193,96.107,574.214,569.901,0.0
55670.0,STARLINK-5423,PAYLOAD,2024-05-21 02:05:26,14.98336064,0.0003272,70.0023,22.443,272.2067,87.8717,0.00053627,6.313e-05,0.0,0 STARLINK-5423,1 55670U 23021AU  24142.08710931  .00006313  00000-0  53627-3 0  9992,2 55670  70.0023  22.4430 0003272 272.2067  87.8717 14.98336064 70786,6950.174,96.107,574.313,569.765,0.0
55670.0,STARLINK-5423,PAYLOAD,2024-05-21 19:42:54,14.98335916,0.0002706,70.0034,20.5908,271.7585,88.3264,0.00023375,2.698e-05,0.0,0 STARLINK-5423,1 55670U 23021AU  24142.82146891  .00002698  00000-0  23375-3 0  9991,2 55670  70.0034  20.5908 0002706 271.7585  88.3264 14.98335916 70897,6950.175,96.107,573.92,570.159,0.0
55670.0,STARLINK-5423,PAYLOAD,2024-05-22 02:07:26,14.98339616,0.000253,70.0033,19.9173,268.838,91.2489,0.00030274,3.522e-05,0.0,0 STARLINK-5423,1 55670U 23021AU  24143.08850632  .00003522  00000-0  30274-3 0  9998,2 55670  70.0033  19.9173 0002530 268.8380  91.2489 14.98339616 70632,6950.163,96.106,573.787,570.27,0.0
55670.0,STARLINK-5423,PAYLOAD,2024-05-22 21:21:03,14.98332981,0.0002748,70.0028,17.8984,271.3661,88.7183,0.00010113,1.114e-05,0.0,0 STARLINK-5423,1 55670U 23021AU  24143.88962705  .00001114  00000-0  10113-3 0  9996,2 55670  70.0028  17.8984 0002748 271.3661  88.7183 14.98332981 70758,6950.184,96.107,573.959,570.139,0.0
55670.0,STARLINK-5423,PAYLOAD,2024-05-23 02:09:27,14.98331843,0.0002532,70.0045,17.3927,273.7953,86.2916,-4.9851e-05,-6.88e-06,0.0,0 STARLINK-5423,1 55670U 23021AU  24144.08990738 -.00000688  00000-0 -49851-4 0  9995,2 55670  70.0045  17.3927 0002532 273.7953  86.2916 14.98331843 71080,6950.187,96.107,573.812,570.292,0.0
55670.0,STARLINK-5423,PAYLOAD,2024-05-23 21:23:04,14.98335513,0.0002717,70.0013,15.3729,259.0717,101.0136,0.00010864,1.204e-05,0.0,0 STARLINK-5423,1 55670U 23021AU  24144.89102415  .00001204  00000-0  10864-3 0  9995,2 55670  70.0013  15.3729 0002717 259.0717 101.0136 14.98335513 70901,6950.176,96.107,573.929,570.152,0.0
55670.0,STARLINK-5423,PAYLOAD,2024-05-24 15:00:33,14.98338828,0.0002563,70.0017,13.5214,237.1201,122.9712,-3.9865e-05,-5.69e-06,0.0,0 STARLINK-5423,1 55670U 23021AU  24145.62538449 -.00000569  00000-0 -39865-4 0  9995,2 55670  70.0017  13.5214 0002563 237.1201 122.9712 14.98338828 71318,6950.166,96.106,573.812,570.249,0.0
55670.0,STARLINK-5423,PAYLOAD,2024-05-24 21:25:05,14.98333701,0.0002903,69.9996,12.8445,266.8821,93.2006,-4.2397e-05,-5.99e-06,0.0,0 STARLINK-5423,1 55670U 23021AU  24145.89242695 -.00000599  00000-0 -42397-4 0  9996,2 55670  69.9996  12.8445 0002903 266.8821  93.2006 14.98333701 71056,6950.181,96.107,574.064,570.029,0.0
